#dP2023  2 13 18  0  0.00000000      96 __u+U ITR00 EXT  IAC
## 2249 151200.00000000   900.00000000 59988 0.7500000000000
+  120   C06C07C08C09C10C11C12C13C14C16C19C20C21C22C23C24C25
+        C26C27C28C29C30C32C33C34C35C36C37C38C39C40C41C42C43
+        C44C45C46E01E02E03E04E05E07E08E09E10E11E12E13E14E15
+        E18E19E21E24E25E26E27E30E31E33E34E36G01G02G03G04G05
+        G06G07G08G09G10G11G12G13G14G15G16G17G18G19G20G21G22
+        G23G24G25G26G27G28G29G30G31G32J02J03J04R01R02R03R04
+        R05R07R08R09R11R12R13R14R15R16R17R18R19R20R21R22R24
+        R25  0  0  0  0  0  0  0  0  0  0  0  0  0  0  0  0
++        10 11 10 10  8  9  9 10  9 10  9  7  7  8 10  8  9
++         9  7  8  9  9 10  8  8  8  8  9 10 11  9  8 10 10
++         9 11  8  7  7  7  7  6  7  9  8  8  7  6  7  8  8
++         8  8  8  7  8  7  6  8  8  7  7  8  8  6  6  9  6
++         8  7  7  9  7  7  6  6  7  8  6  7  6  6  8  8  7
++         6  7  6  8  7  9  8  7  7  7  8 10 10  7  7  8  7
++         8  8  6  7  7  7  7  6  8  8  9  6  9  9  9  7  7
++         6  0  0  0  0  0  0  0  0  0  0  0  0  0  0  0  0
%c M  cc GPS ccc cccc cccc cccc cccc ccccc ccccc ccccc ccccc
%c cc cc ccc ccc cccc cccc cccc cccc ccccc ccccc ccccc ccccc
%f  0.0000000  0.000000000  0.00000000000  0.000000000000000
%f  0.0000000  0.000000000  0.00000000000  0.000000000000000
%i    0    0    0    0      0      0      0      0         0
%i    0    0    0    0      0      0      0      0         0
/* IAC                                ULTRA-RAPID PREDICTION
/* S/V CLOCKS ARE ALIGNED TO GNSS TIME                      
/* G:C1WC2W R:C1PC2P E:C1XC5X C:C2IC6I J:C1CC2S             
/* PCV:IGS20_2247 OL/AL:FES2004  NONE     YN ORB:CoN CLK:CoN
*  2023 02 13 22 30  0.00000000
PC06  -1558.926075  31505.162242  28110.359516   -191.240715
PC07 -15781.601025  27933.071742 -27376.161187    117.938556
PC08 -13234.598083  39805.893875   3060.155400    526.126792
PC09   5250.383945  35812.760482  22454.036316    664.145483
PC10  -8721.738220  28289.316635 -29867.725638     11.891040
PC11  18109.297670  -1821.556218  21218.662364   -122.155268
PC12  22641.251840  14042.652544   8340.641701    451.238694
PC13  -8646.876397  40311.324455   8297.108310    207.133032
PC14  25981.116156  -9843.633738  -2266.045806    477.091688
PC16  -2642.344996  30321.376054  29501.659958    162.968033
PC19 -20900.702123  14674.600001  11300.212793   -894.597257
PC20 -26997.843982   4674.344380  -5351.337902    724.899466
PC21  17168.191506   8996.722810  20088.562080   -911.083873
PC22  -2492.149319  16692.322551  22231.346215   -634.320450
PC23   3029.564375 -27415.713154   4260.058458   -877.371048
PC24  16717.656257   -840.728683 -22351.894498   -414.176181
PC25  13174.604444 -21423.517302 -12129.636487     71.595390
PC26  10664.047133  17181.249603 -19233.452207    -78.367796
PC27 -20304.179906 -19130.379362      9.643679     96.382191
PC28  -7558.983238 -21922.416645  15527.875241     70.174961
PC29 -10725.895787  11813.018391 -22898.989708     80.729499
PC30 -22572.861681  -5342.507408 -15500.355655      1.162415
PC32 -17205.630918  -8880.833928 -20079.817043   -622.741839
PC33  20877.983307 -14752.046100 -11167.254378   -873.340394
PC34  22231.014744   4275.318986  16324.971349    105.539316
PC35   7210.415855  21478.334537 -16330.508556    680.995948
PC36 -13953.775013  20567.682673  12693.100715   -627.079429
PC37  -9412.543339 -18719.411826  18449.261167   -821.796272
PC38 -17174.282021  37997.209817  -5640.003759     58.615449
PC39  -7615.527669  25665.891535  32653.059180     -1.798588
PC40 -22155.778334  21676.711218 -28691.442401    -15.035156
PC41   3119.428496 -16814.925977 -21995.126482   -608.818019
PC42  26843.161958  -3748.464646   6649.061875   -838.461301
PC43  11557.635053 -11204.375124  22787.892572      7.045810
PC44  20909.622454  18510.159651   -244.344969     14.547149
PC45  -2766.289922  27356.296760  -4691.580351    -60.084507
PC46 -16796.114524   2816.178866  22090.618367    -33.227000
PE01  23451.789373  -8463.140324 -15971.308225   -600.527082
PE02 -23505.308951   8847.666287  15637.385970     20.635717
PE03 -28108.998216   -172.809873   9284.723645   -649.748716
PE04  15089.179418 -12387.856968 -22243.881831    -57.682624
PE05 -24886.121862 -12935.813040  -9454.196548    -95.620156
PE07   7049.517788  17963.019480  22449.292006    -22.711332
PE08 -15183.258967  12218.084839  22281.362307    -35.633904
PE09  -6917.790243 -17814.381557 -22604.087586   -835.139788
PE10   1017.742450 -26450.256393  13245.064994   -512.199560
PE11  -6259.406016 -28739.443303   3223.504668    873.684402
PE12   7658.278153 -20271.053906  20156.126868   -421.220570
PE13   5754.055696  28750.424283  -4098.849061     -0.240816
PE14 -29013.548407 -10256.742965   -728.482680    141.423035
PE15  -7752.643526  20015.239152 -20377.679539     -0.943597
PE18  19751.763677  14744.256994  -7738.973652   -394.061261
PE19  28706.148090   2203.227879  -6886.115335  -3241.546665
PE21  14720.075390   8625.898232 -24196.594416   -512.002041
PE24   3951.510835 -22571.572165  18734.292297  -1112.670953
PE25 -14457.133205  -8933.983398  24232.908632   -599.326110
PE26  16031.764519  19871.293051  14988.495665     17.589673
PE27  -3052.425124  22224.645260 -19306.061132   -511.635846
PE30 -19293.991157  22297.821397  -2473.196099  -1240.310093
PE31  18864.277097 -22608.947852   3088.958585   -515.963806
PE33  16595.358592    494.137240  24515.062961   -452.055491
PE34 -16555.873541   -265.267537 -24536.339692    -29.956183
PE36 -15720.375575 -20539.753873 -14374.350127    -12.019762
PG01  14130.912081  -2975.013361  21973.584250    212.857668
PG02 -12831.471446   8013.440663 -21227.965567   -621.031597
PG03  21881.079853 -10865.743889  10160.106936   -363.446156
PG04  23148.420947  -1523.631540 -13027.952771    -28.110380
PG05 -17072.184179  -2817.781383 -20350.677442   -115.800108
PG06  -5274.655988 -25973.368746    573.092181    572.042410
PG07   8638.599174 -17669.587865 -17180.234171    241.525278
PG08  25996.782939   6191.177731   1610.868840   -108.371172
PG09  14601.973615 -10303.854582 -19738.121462   -218.749107
PG10  -6518.851278  20435.848632  15628.998795    -24.588955
PG11 -12122.677630 -20207.622883 -12276.290784   -103.490388
PG12 -22482.012930   8071.897712  11224.253085   -340.002966
PG13 -22583.403909 -13644.530800  -4030.094740    475.635165
PG14   9520.582620 -20837.075119  13335.149580    -27.791604
PG15 -26434.283344  -3355.576490   1367.868836     13.208114
PG16  15287.875914   6616.819122 -21085.530386   -520.199270
PG17    848.220244 -15556.465910  21933.735988    699.846920
PG18  -6364.295596  20677.075781 -15307.720109   -139.494183
PG19 -10855.812300 -17227.593778  16968.216217    277.329966
PG20  -9336.825015 -12913.962098 -21240.331569    450.887287
PG21  16887.683056   6218.002693  20370.538026    153.979219
PG22  13793.010676  17155.650048  15417.720293    426.464273
PG23 -15773.183868  20580.495212   5389.766375      6.037619
PG24 -16361.372184  -1155.714000  20604.500211    -72.545206
PG25 -20481.410045  16325.692661   3080.171730    419.858667
PG26   4504.221167  16802.667351 -20095.306997    241.461700
PG27  21644.281585  13106.873545  -8979.151940    103.058112
PG28   5065.052244  25955.280678   2467.885055     11.232515
PG29 -17851.747390   6444.186175 -18659.120223   -585.961556
PG30    246.965908 -25298.696815  -7537.523063   -530.394205
PG31   6417.267805  25466.289797  -1743.380992   -209.160972
PG32   3398.794603  16312.626974  20891.653777   -395.288615
PJ02 -35543.364991  22760.655442   4982.803635     -0.892530
PJ03 -20748.540981  21646.937317 -25022.146131      0.224110
PJ04 -26546.594866  31908.780389  13269.756346     94.274336
PR01 -24752.829998   5231.519922   3303.350325     22.993701
PR02 -12982.637218  10554.994620  19273.361970    -23.275325
PR03   6022.824616  10072.050535  22702.688511     72.441462
PR04  21214.779383   3966.936900  13639.342368    175.679564
PR05  25015.554396  -4146.335782  -2888.342195    107.716116
PR07  -6772.236718  -9875.295281 -22473.656731     49.878348
PR08 -21351.353366  -3788.503169 -13345.288710    -69.453426
PR09  10291.096829 -23204.381986  -2064.471129    103.955502
PR11  -8467.722200  -7834.061943  22754.306660     -4.397650
PR12 -14111.241551  11593.779678  17815.795187     24.990607
PR13 -11154.746818  22611.493260   3826.470890    -31.994888
PR14  -1046.080672  20977.481691 -14480.379031     24.343239
PR15   9039.602011   6844.840770 -22837.459041     91.099913
PR16  13879.591249 -11431.287984 -18078.089718     11.245510
PR17  11313.387714  21371.791728  -8058.619971    604.620611
PR18  17112.549663  16850.450736   8699.151895     66.666765
PR19  14503.321446   5171.798590  20340.680407   -221.804293
PR20   2236.532190 -13594.624060  21466.731565    -87.646722
PR21 -12154.397202 -21492.985788   6445.722997   -373.105883
PR22 -16682.432647 -16844.199229  -9362.482017     70.865574
PR24  -1626.629748  14408.462750 -20963.974085    146.603679
PR25 -10012.095513 -21946.092698   8325.893726     55.001346
EOF
